[{"OBJECT_NAME":"NETSAT-1","OBJECT_ID":"2020-068W","EPOCH":"2026-03-09T22:42:38.711232","MEAN_MOTION":15.32042482,"ECCENTRICITY":0.00057337,"INCLINATION":97.8751,"RA_OF_ASC_NODE":63.2583,"ARG_OF_PERICENTER":18.5877,"MEAN_ANOMALY":341.5572,"EPHEMERIS_TYPE":0,"CLASSIFICATION_TYPE":"U","NORAD_CAT_ID":46506,"ELEMENT_SET_NO":999,"REV_AT_EPOCH":30009,"BSTAR":0.00059222329,"MEAN_MOTION_DOT":0.00018269,"MEAN_MOTION_DDOT":0},{"OBJECT_NAME":"STARLINK-31116","OBJECT_ID":"2024-027S","EPOCH":"2026-03-09T22:14:46.341600","MEAN_MOTION":15.3018636,"ECCENTRICITY":0.00010289,"INCLINATION":53.1607,"RA_OF_ASC_NODE":308.5889,"ARG_OF_PERICENTER":104.816,"MEAN_ANOMALY":255.2955,"EPHEMERIS_TYPE":0,"CLASSIFICATION_TYPE":"U","NORAD_CAT_ID":58947,"ELEMENT_SET_NO":999,"REV_AT_EPOCH":11736,"BSTAR":4.776632e-5,"MEAN_MOTION_DOT":1.055e-5,"MEAN_MOTION_DDOT":0}]
